INTELSAT 23 (IS-23)     
1 38867U 12057A   26177.21216742 -.00000274  00000+0  00000+0 0  9997
2 38867   0.0125  19.9926 0000166 139.0605 138.6564  1.00271666 50046
FM-6                    
1 39360U 13058A   26177.31279139 -.00000005  00000+0  00000+0 0  9990
2 39360   0.0170  43.7739 0001572 136.9939  89.9747  1.00271143 46169
INTELSAT 30 (IS-30)     
1 40271U 14062A   26176.36358354 -.00000141  00000+0  00000+0 0  9991
2 40271   0.0269  55.6231 0001489 338.6494 275.0652  1.00272157  6877
DIRECTV 14              
1 40333U 14078B   26176.36271689 -.00000116  00000+0  00000+0 0  9994
2 40333   0.0098  19.2836 0000354   6.4271 279.1338  1.00272630 42126
DIRECTV 15              
1 40663U 15026A   26176.93240065 -.00000092  00000+0  00000+0 0  9994
2 40663   0.0190  62.4777 0000539 338.5679 105.7995  1.00270429 40557
SKY MEXICO-1            
1 40664U 15026B   26176.50939367  .00000000  00000+0  00000+0 0  9996
2 40664   0.0256 359.1063 0002676 115.2462 263.8772  1.00268983 40538
INTELSAT 34 (IS-34)     
1 40874U 15039A   26176.37138359 -.00000275  00000+0  00000+0 0  9995
2 40874   0.0077 354.3653 0000477  26.9885 330.3532  1.00270119 39714
INTELSAT 31 (IS-31)     
1 41581U 16035A   26177.30617977 -.00000140  00000+0  00000+0 0  9991
2 41581   0.0144 284.0453 0000658 332.5537  33.0052  1.00271688 36772
INTELSAT 36 (IS-36)     
1 41747U 16053A   26176.18209406 -.00000015  00000+0  00000+0 0  9995
2 41747   0.0128  20.9268 0002042 321.7510  64.7168  1.00272521 36034
INTELSAT 32E (IS-32E)   
1 41945U 17007B   26177.15802606  .00000000  00000+0  00000+0 0  9997
2 41945   0.0267  12.3300 0000471 351.3179 284.3451  1.00269211 34310
INTELSAT 35E (IS-35E)   
1 42818U 17041A   26177.25362377  .00000000  00000+0  00000+0 0  9992
2 42818   0.0262  17.4303 0002387  78.8366 234.9314  1.00269368 32906
INTELSAT 37E (IS-37E)   
1 42950U 17059A   26177.23436120  .00000000  00000+0  00000+0 0  9994
2 42950   0.0279  23.2048 0002929  72.7744 244.7587  1.00269805 32151
AZERSPACE 2 (IS-38)     
1 43632U 18074A   26176.17741404  .00000146  00000+0  00000+0 0  9997
2 43632   0.0035  82.5969 0001586  10.3273 289.3716  1.00272596 28528
HORIZONS-3E             
1 43633U 18074B   26175.13266341 -.00000024  00000+0  00000+0 0  9991
2 43633   0.0084 244.9552 0000546  64.2971 179.8035  1.00270268 28412
AT&T T-16               
1 44333U 19034A   26177.16016715 -.00000105  00000+0  00000+0 0  9999
2 44333   0.0192  62.4835 0000687 297.4738 231.1316  1.00276779 25722
INTELSAT 39 (IS-39)     
1 44476U 19049B   26176.53728661  .00000000  00000+0  00000+0 0  9996
2 44476   0.0262   7.3307 0000772 349.0040 172.7126  1.00270995 25212
GALAXY 30 (G-30)        
1 46114U 20056C   26177.22197209  .00000000  00000+0  00000+0 0  9992
2 46114   0.0265  13.9515 0002311  78.9158 136.3766  1.00270659 21386
GALAXY 33 (G-33)        
1 54026U 22128A   26177.26642942  .00000090  00000+0  00000+0 0  9997
2 54026   0.0139   4.2187 0002054  85.3458 147.7428  1.00271340 13834
GALAXY 34 (G-34)        
1 54027U 22128B   26177.26816035  .00000071  00000+0  00000+0 0  9993
2 54027   0.0121  28.0825 0002007  73.1427 140.7009  1.00266230 14008
GALAXY 31 (G-31)        
1 54243U 22153A   26177.30787653  .00000000  00000+0  00000+0 0  9991
2 54243   0.0183  15.9338 0001655  83.3117 165.0219  1.00269709  7220
GALAXY 32 (G-32)        
1 54244U 22153B   26176.86341139 -.00000164  00000+0  00000+0 0  9999
2 54244   0.0103  23.4109 0002080  22.7250  87.6890  1.00272131 13236
GALAXY 35 (G-35)        
1 54741U 22170A   26177.19032709  .00000000  00000+0  00000+0 0  9995
2 54741   0.0186   2.3393 0002228  91.8328 155.5552  1.00269655 12985
GALAXY 36 (G-36)        
1 54742U 22170B   26177.29269965 -.00000174  00000+0  00000+0 0  9996
2 54742   0.0346 125.8133 0002862 322.7060 202.2753  1.00271626 12861
GALAXY 37 (G-37)        
1 57493U 23112A   26177.30530953  .00000059  00000+0  00000+0 0  9990
2 57493   0.0133  50.5566 0002231  41.3514 165.4346  1.00271677 10630
